CUTE-1 (CO-55)          
1 27844U 03031E   26132.77239405  .00000191  00000+0  10155-3 0  9998
2 27844  98.6747 141.7761 0008348 291.1479  68.8807 14.24313071186638
CUBESAT XI-IV (CO-57)   
1 27848U 03031J   26132.46199470  .00000167  00000+0  92608-4 0  9992
2 27848  98.6779 141.2109 0008495 313.1821  46.8647 14.23601104186293
CUBESAT XI-V            
1 28895U 05043F   26132.66158955  .00000827  00000+0  13840-3 0  9998
2 28895  98.2946 287.5478 0013167 322.3080  37.7203 14.72535163 96520
CUTE-1.7+APD II (CO-65) 
1 32785U 08021C   26132.84521333  .00002895  00000+0  18667-3 0  9993
2 32785  97.8259 113.5431 0010036 140.5484 219.6477 15.09105840979869
CANX-2                  
1 32790U 08021H   26132.86208087  .00002064  00000+0  14844-3 0  9990
2 32790  97.8626 111.9660 0011172 153.6824 206.4971 15.05359716979495
SEEDS II (CO-66)        
1 32791U 08021J   26132.73647330  .00011772  00000+0  38923-3 0  9995
2 32791  97.7525 128.9791 0005011  84.8915 275.2897 15.31513020981861
SWISSCUBE               
1 35932U 09051B   26132.24860676  .00000616  00000+0  13145-3 0  9999
2 35932  98.4058  39.5092 0006254 336.3034  23.7877 14.62409745883909
BEESAT-1                
1 35933U 09051C   26132.44485308  .00000505  00000+0  11131-3 0  9997
2 35933  98.3987  39.4187 0005088 353.8769   6.2369 14.61659829883964
ITUPSAT1                
1 35935U 09051E   26132.67857994  .00000464  00000+0  10588-3 0  9997
2 35935  98.4072  38.8853 0007481 359.6293   0.4899 14.60384980883551
TISAT 1                 
1 36799U 10035E   26132.82315718  .00012086  00000+0  41456-3 0  9991
2 36799  98.0690  76.2801 0003550  53.3797 306.7768 15.30336159862299
AEROCUBE 4.5A           
1 38767U 12048K   26132.38623218  .00113860  00000+0  66125-3 0  9994
2 38767  64.6292 155.8749 0019245 216.8968 143.0863 15.77683228366988
STRAND-1                
1 39090U 13009E   26132.75751154  .00000176  00000+0  73609-4 0  9995
2 39090  98.3916 313.8656 0008208 345.1493  14.9451 14.37141663691970
BRITE-AUSTRIA           
1 39091U 13009F   26132.75518090  .00000105  00000+0  50465-4 0  9993
2 39091  98.3988 313.0696 0009956 353.0746   7.0301 14.36527478691963
NEE-01 PEGASO           
1 39151U 13018B   26132.35625074  .00001741  00000+0  17120-3 0  9994
2 39151  98.1174 275.3376 0011192 283.4284  76.5687 14.93482578705359
POPACS 2                
1 39269U 13055E   26131.59604559  .00009204  00000+0  15800-3 0  9990
2 39269  80.9931 186.0535 0419365 311.5041  45.0875 14.90383682657766
POPACS 3                
1 39270U 13055F   26132.65096196  .00011360  00000+0  27150-3 0  9999
2 39270  81.0001 267.6896 0554922 178.0579 182.2973 14.55239967633387
ZACUBE-1 (TSHEPISOSAT)  
1 39417U 13066B   26132.87677755  .00003027  00000+0  23831-3 0  9997
2 39417  97.8118  95.0221 0041873  11.9961 348.2250 15.00908497675431
WNISAT-1                
1 39423U 13066H   26132.86860024  .00000296  00000+0  62998-4 0  9999
2 39423  97.7159 284.5407 0162683 343.6514  15.9474 14.58017803661586
TRITON-1                
1 39427U 13066M   26132.84007972  .00001759  00000+0  21583-3 0  9995
2 39427  97.8263  43.4519 0090161 350.6484   9.3046 14.81546815668853
GOMX-1                  
1 39430U 13066Q   26132.84327161  .00001167  00000+0  18195-3 0  9992
2 39430  97.6515 335.5349 0128401 190.3885 169.4665 14.69316965664728
CUBEBUG-2 (LO-74)       
1 39440U 13066AA  26132.82478453  .00001748  00000+0  16626-3 0  9994
2 39440  97.8889  81.6671 0058845 143.2528 217.2748 14.93491684671717
NEE-02 KRYSAOR          
1 39441U 13066AB  26132.80323183  .00000967  00000+0  11153-3 0  9994
2 39441  97.8881  72.2784 0066046 184.4422 175.6216 14.86483003670942
FUNCUBE-1 (AO-73)       
1 39444U 13066AE  26132.85135747  .00005186  00000+0  32740-3 0  9992
2 39444  97.8258 103.5768 0035403 326.7913  33.1093 15.09021963674339
UWE-3                   
1 39446U 13066AG  26132.85338036  .00002072  00000+0  18208-3 0  9994
2 39446  97.8679  88.7041 0050854  77.6887 283.0021 14.96720144672297
BRITE-CA1 (TORONTO)     
1 40020U 14033L   26132.84210882  .00000442  00000+0  74164-4 0  9999
2 40020  97.9688 262.4329 0079296  31.0122 329.5732 14.72627377637019
DUCHIFAT-1              
1 40021U 14033M   26132.12536242  .00050870  00000+0  67127-3 0  9992
2 40021  98.0509 186.4226 0005800 189.1310 170.9839 15.58226206650123
NANOSATC-BR1            
1 40024U 14033Q   26132.32002663  .00009463  00000+0  32574-3 0  9992
2 40024  98.0757 161.5605 0001986 330.4034  29.7092 15.30300900648494
QB50P1                  
1 40025U 14033R   26132.75153105  .00005441  00000+0  27352-3 0  9998
2 40025  98.0982 141.4283 0008401 359.7163   0.4062 15.17697742647658
QB50P2                  
1 40032U 14033Y   26132.69630108  .00003871  00000+0  21308-3 0  9992
2 40032  98.0754 127.3827 0005835 303.9835  56.0841 15.14693271647297
PERSEUS-M2              
1 40037U 14033AD  26132.86817953  .00001157  00000+0  11015-3 0  9990
2 40037  97.9935  82.6972 0013179  60.3280 299.9250 14.95395843645509
